COSMOS 2251 DEB         
1 34434U 93036SB  26116.50678112  .00004275  00000+0  24702-2 0  9999
2 34434  74.0576 140.6388 0283431 245.5843 239.6857 13.91050172858393
COSMOS 2251 DEB         
1 34446U 93036SP  26117.10589000  .00000326  00000+0  91075-4 0  9998
2 34446  74.0403 163.3962 0052192 266.1629  93.3562 14.49501846906557
COSMOS 2251 DEB         
1 34449U 93036SS  26117.09899910  .00033393  00000+0  23072-2 0  9993
2 34449  74.0257 155.2206 0017974 186.1370 205.1531 15.05465059907234
COSMOS 2251 DEB         
1 34451U 93036SU  26117.26400497  .00047453  00000+0  31087-2 0  9990
2 34451  74.0420 171.9542 0017013 181.2067 178.9086 15.07365226906698
COSMOS 2251 DEB         
1 34452U 93036SV  26116.56509728  .00015593  00000+0  76821-3 0  9996
2 34452  74.0240 262.5729 0058745 303.3322  56.2256 15.16413367927039
COSMOS 2251 DEB         
1 34454U 93036SX  26117.14391510  .00000620  00000+0  20785-3 0  9994
2 34454  74.0606  28.2254 0034141  58.9633 301.4866 14.39018060900150
COSMOS 2251 DEB         
1 34459U 93036TC  26117.13135180  .00000784  00000+0  46267-3 0  9991
2 34459  74.0812  19.9967 0190367  57.6963 304.2451 14.00722740876076
COSMOS 2251 DEB         
1 34464U 93036TH  26116.07700903  .07320090  19042-5  48408-2 0  9992
2 34464  73.9509 143.5187 0014491 263.3140  96.6458 16.16686425919184
COSMOS 2251 DEB         
1 34468U 93036TM  26117.28064652  .00000752  00000+0  20339-3 0  9999
2 34468  74.0131 223.1968 0075640 334.4249  25.3174 14.47937213904236
COSMOS 2251 DEB         
1 34472U 93036TR  26117.02850424  .00000487  00000+0  39208-3 0  9996
2 34472  74.0822 235.5589 0328777 334.9910  23.5578 13.70713254855804
COSMOS 2251 DEB         
1 34474U 93036TT  26116.92082044  .00001957  00000+0  98190-3 0  9999
2 34474  74.0746  89.9548 0199182 133.0865 259.8464 14.07399893874102
COSMOS 2251 DEB         
1 34476U 93036TV  26117.25962112  .00002762  00000+0  17346-2 0  9999
2 34476  74.0043 213.7932 0313247  43.7267 318.8212 13.83352709855116
COSMOS 2251 DEB         
1 34477U 93036TW  26117.22581759  .00002122  00000+0  45320-3 0  9995
2 34477  73.9764 171.1206 0075775 324.3596 105.1618 14.57731381905998
COSMOS 2251 DEB         
1 34478U 93036TX  26117.24774797  .00132283  00000+0  47567-2 0  9990
2 34478  74.0371  84.1861 0032239 248.2894 111.4874 15.27518793910288
COSMOS 2251 DEB         
1 34481U 93036UA  26117.20116802  .00001262  00000+0  45810-3 0  9999
2 34481  73.9776 165.1814 0071006 306.4095 110.3333 14.32990365893891
COSMOS 2251 DEB         
1 34482U 93036UB  26116.98571023  .00009390  00000+0  14535-2 0  9993
2 34482  74.0364 320.9021 0038880 351.3996 125.3241 14.72820051901768
