[{"OBJECT_NAME":"COSMOS 2251 DEB","OBJECT_ID":"1993-036SB","EPOCH":"2026-04-26T12:09:45.888768","MEAN_MOTION":13.91050172,"ECCENTRICITY":0.02834315,"INCLINATION":74.0576,"RA_OF_ASC_NODE":140.6388,"ARG_OF_PERICENTER":245.5843,"MEAN_ANOMALY":239.6857,"EPHEMERIS_TYPE":0,"CLASSIFICATION_TYPE":"U","NORAD_CAT_ID":34434,"ELEMENT_SET_NO":999,"REV_AT_EPOCH":85839,"BSTAR":0.0024702202,"MEAN_MOTION_DOT":4.275e-5,"MEAN_MOTION_DDOT":0},{"OBJECT_NAME":"COSMOS 2251 DEB","OBJECT_ID":"1993-036SP","EPOCH":"2026-04-27T02:32:28.896000","MEAN_MOTION":14.49501846,"ECCENTRICITY":0.00521926,"INCLINATION":74.0403,"RA_OF_ASC_NODE":163.3962,"ARG_OF_PERICENTER":266.1629,"MEAN_ANOMALY":93.3562,"EPHEMERIS_TYPE":0,"CLASSIFICATION_TYPE":"U","NORAD_CAT_ID":34446,"ELEMENT_SET_NO":999,"REV_AT_EPOCH":90655,"BSTAR":9.107522e-5,"MEAN_MOTION_DOT":3.26e-6,"MEAN_MOTION_DDOT":0},{"OBJECT_NAME":"COSMOS 2251 DEB","OBJECT_ID":"1993-036SS","EPOCH":"2026-04-27T02:22:33.522240","MEAN_MOTION":15.05465059,"ECCENTRICITY":0.00179749,"INCLINATION":74.0257,"RA_OF_ASC_NODE":155.2206,"ARG_OF_PERICENTER":186.137,"MEAN_ANOMALY":205.1531,"EPHEMERIS_TYPE":0,"CLASSIFICATION_TYPE":"U","NORAD_CAT_ID":34449,"ELEMENT_SET_NO":999,"REV_AT_EPOCH":90723,"BSTAR":0.0023071583,"MEAN_MOTION_DOT":0.00033393,"MEAN_MOTION_DDOT":0},{"OBJECT_NAME":"COSMOS 2251 DEB","OBJECT_ID":"1993-036SU","EPOCH":"2026-04-27T06:20:10.029408","MEAN_MOTION":15.07365226,"ECCENTRICITY":0.00170131,"INCLINATION":74.042,"RA_OF_ASC_NODE":171.9542,"ARG_OF_PERICENTER":181.2067,"MEAN_ANOMALY":178.9086,"EPHEMERIS_TYPE":0,"CLASSIFICATION_TYPE":"U","NORAD_CAT_ID":34451,"ELEMENT_SET_NO":999,"REV_AT_EPOCH":90669,"BSTAR":0.0031087461,"MEAN_MOTION_DOT":0.00047453,"MEAN_MOTION_DDOT":0},{"OBJECT_NAME":"COSMOS 2251 DEB","OBJECT_ID":"1993-036SV","EPOCH":"2026-04-26T13:33:44.404992","MEAN_MOTION":15.16413367,"ECCENTRICITY":0.00587455,"INCLINATION":74.024,"RA_OF_ASC_NODE":262.5729,"ARG_OF_PERICENTER":303.3322,"MEAN_ANOMALY":56.2256,"EPHEMERIS_TYPE":0,"CLASSIFICATION_TYPE":"U","NORAD_CAT_ID":34452,"ELEMENT_SET_NO":999,"REV_AT_EPOCH":92703,"BSTAR":0.00076821287,"MEAN_MOTION_DOT":0.00015593,"MEAN_MOTION_DDOT":0},{"OBJECT_NAME":"COSMOS 2251 DEB","OBJECT_ID":"1993-036SX","EPOCH":"2026-04-27T03:27:14.264640","MEAN_MOTION":14.3901806,"ECCENTRICITY":0.00341419,"INCLINATION":74.0606,"RA_OF_ASC_NODE":28.2254,"ARG_OF_PERICENTER":58.9633,"MEAN_ANOMALY":301.4866,"EPHEMERIS_TYPE":0,"CLASSIFICATION_TYPE":"U","NORAD_CAT_ID":34454,"ELEMENT_SET_NO":999,"REV_AT_EPOCH":90015,"BSTAR":0.00020784848,"MEAN_MOTION_DOT":6.2e-6,"MEAN_MOTION_DDOT":0},{"OBJECT_NAME":"COSMOS 2251 DEB","OBJECT_ID":"1993-036TC","EPOCH":"2026-04-27T03:09:08.795520","MEAN_MOTION":14.0072274,"ECCENTRICITY":0.01903671,"INCLINATION":74.0812,"RA_OF_ASC_NODE":19.9967,"ARG_OF_PERICENTER":57.6963,"MEAN_ANOMALY":304.2451,"EPHEMERIS_TYPE":0,"CLASSIFICATION_TYPE":"U","NORAD_CAT_ID":34459,"ELEMENT_SET_NO":999,"REV_AT_EPOCH":87607,"BSTAR":0.00046267038,"MEAN_MOTION_DOT":7.84e-6,"MEAN_MOTION_DDOT":0},{"OBJECT_NAME":"COSMOS 2251 DEB","OBJECT_ID":"1993-036TH","EPOCH":"2026-04-26T01:50:53.580192","MEAN_MOTION":16.16686425,"ECCENTRICITY":0.00144917,"INCLINATION":73.9509,"RA_OF_ASC_NODE":143.5187,"ARG_OF_PERICENTER":263.314,"MEAN_ANOMALY":96.6458,"EPHEMERIS_TYPE":0,"CLASSIFICATION_TYPE":"U","NORAD_CAT_ID":34464,"ELEMENT_SET_NO":999,"REV_AT_EPOCH":91918,"BSTAR":0.0048407863,"MEAN_MOTION_DOT":0.0732009,"MEAN_MOTION_DDOT":1.904169e-6},{"OBJECT_NAME":"COSMOS 2251 DEB","OBJECT_ID":"1993-036TM","EPOCH":"2026-04-27T06:44:07.859328","MEAN_MOTION":14.47937213,"ECCENTRICITY":0.00756404,"INCLINATION":74.0131,"RA_OF_ASC_NODE":223.1968,"ARG_OF_PERICENTER":334.4249,"MEAN_ANOMALY":25.3174,"EPHEMERIS_TYPE":0,"CLASSIFICATION_TYPE":"U","NORAD_CAT_ID":34468,"ELEMENT_SET_NO":999,"REV_AT_EPOCH":90423,"BSTAR":0.0002033936,"MEAN_MOTION_DOT":7.52e-6,"MEAN_MOTION_DDOT":0},{"OBJECT_NAME":"COSMOS 2251 DEB","OBJECT_ID":"1993-036TR","EPOCH":"2026-04-27T00:41:02.766336","MEAN_MOTION":13.70713254,"ECCENTRICITY":0.03287774,"INCLINATION":74.0822,"RA_OF_ASC_NODE":235.5589,"ARG_OF_PERICENTER":334.991,"MEAN_ANOMALY":23.5578,"EPHEMERIS_TYPE":0,"CLASSIFICATION_TYPE":"U","NORAD_CAT_ID":34472,"ELEMENT_SET_NO":999,"REV_AT_EPOCH":85580,"BSTAR":0.00039208282,"MEAN_MOTION_DOT":4.87e-6,"MEAN_MOTION_DDOT":0},{"OBJECT_NAME":"COSMOS 2251 DEB","OBJECT_ID":"1993-036TT","EPOCH":"2026-04-26T22:05:58.886016","MEAN_MOTION":14.07399893,"ECCENTRICITY":0.0199182,"INCLINATION":74.0746,"RA_OF_ASC_NODE":89.9548,"ARG_OF_PERICENTER":133.0865,"MEAN_ANOMALY":259.8464,"EPHEMERIS_TYPE":0,"CLASSIFICATION_TYPE":"U","NORAD_CAT_ID":34474,"ELEMENT_SET_NO":999,"REV_AT_EPOCH":87410,"BSTAR":0.0009819,"MEAN_MOTION_DOT":1.957e-5,"MEAN_MOTION_DDOT":0},{"OBJECT_NAME":"COSMOS 2251 DEB","OBJECT_ID":"1993-036TV","EPOCH":"2026-04-27T06:13:51.264768","MEAN_MOTION":13.83352709,"ECCENTRICITY":0.0313247,"INCLINATION":74.0043,"RA_OF_ASC_NODE":213.7932,"ARG_OF_PERICENTER":43.7267,"MEAN_ANOMALY":318.8212,"EPHEMERIS_TYPE":0,"CLASSIFICATION_TYPE":"U","NORAD_CAT_ID":34476,"ELEMENT_SET_NO":999,"REV_AT_EPOCH":85511,"BSTAR":0.0017345628,"MEAN_MOTION_DOT":2.762e-5,"MEAN_MOTION_DDOT":0},{"OBJECT_NAME":"COSMOS 2251 DEB","OBJECT_ID":"1993-036TW","EPOCH":"2026-04-27T05:25:10.639776","MEAN_MOTION":14.57731381,"ECCENTRICITY":0.00757756,"INCLINATION":73.9764,"RA_OF_ASC_NODE":171.1206,"ARG_OF_PERICENTER":324.3596,"MEAN_ANOMALY":105.1618,"EPHEMERIS_TYPE":0,"CLASSIFICATION_TYPE":"U","NORAD_CAT_ID":34477,"ELEMENT_SET_NO":999,"REV_AT_EPOCH":90599,"BSTAR":0.00045320368,"MEAN_MOTION_DOT":2.122e-5,"MEAN_MOTION_DDOT":0},{"OBJECT_NAME":"COSMOS 2251 DEB","OBJECT_ID":"1993-036TX","EPOCH":"2026-04-27T05:56:45.424608","MEAN_MOTION":15.27518793,"ECCENTRICITY":0.00322396,"INCLINATION":74.0371,"RA_OF_ASC_NODE":84.1861,"ARG_OF_PERICENTER":248.2894,"MEAN_ANOMALY":111.4874,"EPHEMERIS_TYPE":0,"CLASSIFICATION_TYPE":"U","NORAD_CAT_ID":34478,"ELEMENT_SET_NO":999,"REV_AT_EPOCH":91028,"BSTAR":0.0047567028,"MEAN_MOTION_DOT":0.00132283,"MEAN_MOTION_DDOT":0},{"OBJECT_NAME":"COSMOS 2251 DEB","OBJECT_ID":"1993-036UA","EPOCH":"2026-04-27T04:49:40.916928","MEAN_MOTION":14.32990365,"ECCENTRICITY":0.00710067,"INCLINATION":73.9776,"RA_OF_ASC_NODE":165.1814,"ARG_OF_PERICENTER":306.4095,"MEAN_ANOMALY":110.3333,"EPHEMERIS_TYPE":0,"CLASSIFICATION_TYPE":"U","NORAD_CAT_ID":34481,"ELEMENT_SET_NO":999,"REV_AT_EPOCH":89389,"BSTAR":0.0004580978,"MEAN_MOTION_DOT":1.262e-5,"MEAN_MOTION_DDOT":0},{"OBJECT_NAME":"COSMOS 2251 DEB","OBJECT_ID":"1993-036UB","EPOCH":"2026-04-26T23:39:25.363872","MEAN_MOTION":14.72820051,"ECCENTRICITY":0.00388804,"INCLINATION":74.0364,"RA_OF_ASC_NODE":320.9021,"ARG_OF_PERICENTER":351.3996,"MEAN_ANOMALY":125.3241,"EPHEMERIS_TYPE":0,"CLASSIFICATION_TYPE":"U","NORAD_CAT_ID":34482,"ELEMENT_SET_NO":999,"REV_AT_EPOCH":90176,"BSTAR":0.0014535146,"MEAN_MOTION_DOT":9.39e-5,"MEAN_MOTION_DDOT":0}]
